STARLINK-34149          
1 64140U 25111T   26068.03444666  .00049457  00000+0  17930-2 0  9990
2 64140  43.0106  81.5356 0002015 297.0909  62.9737 15.27611973 45367
2025-313BE              
1 67482U 25313BE  26068.69721505  .00077178  00000+0  26504-2 0  9996
2 67482  97.3989 145.3568 0007208 335.3714  24.7181 15.29801687  7972
